{
  "norad_id": 67903,
  "name": "STARLINK-36257",
  "history": [
    {
      "epoch": "2026-05-05T18:21:22.226112Z",
      "apogee_km": 466.9471326956973,
      "perigee_km": 464.109749003921,
      "latitude_deg": -6.774727424874071e-05,
      "longitude_deg": -79.4361355654065,
      "height_km": 468.94436430699744,
      "semi_major_axis_km": 6843.665440849809,
      "eccentricity": 0.0002073,
      "inclination_deg": 97.2846,
      "raan_deg": 59.5416,
      "arg_perigee_deg": 102.5021,
      "mean_anomaly_deg": 257.6453,
      "mean_motion_rev_day": 15.33449952
    },
    {
      "epoch": "2026-05-06T19:24:51.679872Z",
      "apogee_km": 466.9290348343393,
      "perigee_km": 464.1149222623608,
      "latitude_deg": -6.4483755429691255e-06,
      "longitude_deg": -95.30887430081309,
      "height_km": 468.7754477380871,
      "semi_major_axis_km": 6843.65897854835,
      "eccentricity": 0.0002056,
      "inclination_deg": 97.2858,
      "raan_deg": 60.5707,
      "arg_perigee_deg": 95.9056,
      "mean_anomaly_deg": 264.2421,
      "mean_motion_rev_day": 15.33452124
    },
    {
      "epoch": "2026-05-07T18:54:22.357728Z",
      "apogee_km": 466.86377395567524,
      "perigee_km": 464.1441110451251,
      "latitude_deg": 9.445635556457553e-06,
      "longitude_deg": -87.68548037494011,
      "height_km": 468.9369344003909,
      "semi_major_axis_km": 6843.640942500399,
      "eccentricity": 0.0001987,
      "inclination_deg": 97.2851,
      "raan_deg": 61.5367,
      "arg_perigee_deg": 103.7853,
      "mean_anomaly_deg": 256.3611,
      "mean_motion_rev_day": 15.33458186
    },
    {
      "epoch": "2026-05-08T13:41:59.456256Z",
      "apogee_km": 467.1393219734873,
      "perigee_km": 464.0076400573753,
      "latitude_deg": 7.656033800326451e-05,
      "longitude_deg": -9.58949575709756,
      "height_km": 469.0068805549657,
      "semi_major_axis_km": 6843.7104810154315,
      "eccentricity": 0.0002288,
      "inclination_deg": 97.2855,
      "raan_deg": 62.3091,
      "arg_perigee_deg": 101.9804,
      "mean_anomaly_deg": 258.1696,
      "mean_motion_rev_day": 15.33434814
    },
    {
      "epoch": "2026-05-09T19:27:23.597856Z",
      "apogee_km": 467.2157986176553,
      "perigee_km": 463.8582921309953,
      "latitude_deg": -9.967685393516415e-06,
      "longitude_deg": -95.9404420528259,
      "height_km": 468.8787752053843,
      "semi_major_axis_km": 6843.674045374325,
      "eccentricity": 0.0002453,
      "inclination_deg": 97.2842,
      "raan_deg": 63.5308,
      "arg_perigee_deg": 98.0008,
      "mean_anomaly_deg": 262.1513,
      "mean_motion_rev_day": 15.3344706
    },
    {
      "epoch": "2026-05-10T18:56:53.458368Z",
      "apogee_km": 467.64528607018474,
      "perigee_km": 463.2681235365926,
      "latitude_deg": -3.830713526756983e-05,
      "longitude_deg": -88.31652529791698,
      "height_km": 468.2987862247577,
      "semi_major_axis_km": 6843.593704803388,
      "eccentricity": 0.0003198,
      "inclination_deg": 97.286,
      "raan_deg": 64.4939,
      "arg_perigee_deg": 83.0592,
      "mean_anomaly_deg": 277.1014,
      "mean_motion_rev_day": 15.33474063
    },
    {
      "epoch": "2026-05-11T13:44:29.832000Z",
      "apogee_km": 466.98015619792204,
      "perigee_km": 464.05244131671316,
      "latitude_deg": 6.285532080935129e-05,
      "longitude_deg": -10.21511427518642,
      "height_km": 468.7127693818103,
      "semi_major_axis_km": 6843.653298757317,
      "eccentricity": 0.0002139,
      "inclination_deg": 97.285,
      "raan_deg": 65.2687,
      "arg_perigee_deg": 93.4437,
      "mean_anomaly_deg": 266.7051,
      "mean_motion_rev_day": 15.33454033
    },
    {
      "epoch": "2026-05-12T19:29:53.184768Z",
      "apogee_km": 466.93616756276606,
      "perigee_km": 464.16036881798846,
      "latitude_deg": -8.780952816854582e-05,
      "longitude_deg": -96.56275344600874,
      "height_km": 468.7144461460867,
      "semi_major_axis_km": 6843.6852681903765,
      "eccentricity": 0.0002028,
      "inclination_deg": 97.2851,
      "raan_deg": 66.4904,
      "arg_perigee_deg": 92.3722,
      "mean_anomaly_deg": 267.7752,
      "mean_motion_rev_day": 15.33443288
    },
    {
      "epoch": "2026-05-13T17:25:25.961088Z",
      "apogee_km": 466.9454927939323,
      "perigee_km": 464.15053183490363,
      "latitude_deg": 4.971769530412644e-05,
      "longitude_deg": -65.45069778533873,
      "height_km": 468.7108345904579,
      "semi_major_axis_km": 6843.685012314418,
      "eccentricity": 0.0002042,
      "inclination_deg": 97.2866,
      "raan_deg": 67.3895,
      "arg_perigee_deg": 92.2219,
      "mean_anomaly_deg": 267.9258,
      "mean_motion_rev_day": 15.33443374
    },
    {
      "epoch": "2026-05-14T07:31:08.351904Z",
      "apogee_km": 466.8133500477288,
      "perigee_km": 464.22754251822516,
      "latitude_deg": 6.055586843059484e-05,
      "longitude_deg": 83.12440714074496,
      "height_km": 469.1161094802054,
      "semi_major_axis_km": 6843.657446282977,
      "eccentricity": 0.00018892,
      "inclination_deg": 97.2859,
      "raan_deg": 67.9701,
      "arg_perigee_deg": 112.0984,
      "mean_anomaly_deg": 248.046,
      "mean_motion_rev_day": 15.33452639
    }
  ]
}